STARLINK-2402
1 17819C 21018AJ  21326.18384873  .00004774  00000-0  31998-3 0  3266
2 17819  53.0556  92.9278 0001289  81.9595 325.4177 15.06382661    17
